[
    {
        "Altitude(m)": 709518.4118372557,
        "Argument of Periapsis(deg)": 0.0022780242373254137,
        "Eccentricity": 0.0,
        "Inclination(deg)": 45.0,
        "Latitude(deg)": -24.117059183820334,
        "Longitude(deg)": -168.68931687598118,
        "Mean Anomaly(deg)": 215.0339433294962,
        "RAAN(deg)": 84.99784961170836,
        "Satellite Name": "Constellation 1 387",
        "Satellite Number": 387,
        "Semi-Major Axis(m)": 7083131.272910544,
        "Time(s)": 38
    },
    {
        "Altitude(m)": 709532.1309197189,
        "Argument of Periapsis(deg)": 0.002337972243570819,
        "Eccentricity": 0.0,
        "Inclination(deg)": 45.0,
        "Latitude(deg)": -24.15563158655341,
        "Longitude(deg)": -168.6420897238598,
        "Mean Anomaly(deg)": 215.09464446974607,
        "RAAN(deg)": 84.99779302254281,
        "Satellite Name": "Constellation 1 387",
        "Satellite Number": 387,
        "Semi-Major Axis(m)": 7083131.272910544,
        "Time(s)": 39
    },
    {
        "Altitude(m)": 709545.8534351096,
        "Argument of Periapsis(deg)": 0.0023979202498162246,
        "Eccentricity": 0.0,
        "Inclination(deg)": 45.0,
        "Latitude(deg)": -24.194186428290212,
        "Longitude(deg)": -168.5948318830483,
        "Mean Anomaly(deg)": 215.15534560999595,
        "RAAN(deg)": 84.99773643337723,
        "Satellite Name": "Constellation 1 387",
        "Satellite Number": 387,
        "Semi-Major Axis(m)": 7083131.272910544,
        "Time(s)": 40
    },
    {
        "Altitude(m)": 709559.5793370915,
        "Argument of Periapsis(deg)": 0.00245786825606163,
        "Eccentricity": 0.0,
        "Inclination(deg)": 45.0,
        "Latitude(deg)": -24.232723667698544,
        "Longitude(deg)": -168.5475432935681,
        "Mean Anomaly(deg)": 215.21604675024585,
        "RAAN(deg)": 84.99767984421166,
        "Satellite Name": "Constellation 1 387",
        "Satellite Number": 387,
        "Semi-Major Axis(m)": 7083131.272910544,
        "Time(s)": 41
    },
    {
        "Altitude(m)": 709573.3085792972,
        "Argument of Periapsis(deg)": 0.002517816262307036,
        "Eccentricity": 0.0,
        "Inclination(deg)": 45.0,
        "Latitude(deg)": -24.271243263386467,
        "Longitude(deg)": -168.50022389543003,
        "Mean Anomaly(deg)": 215.2767478904958,
        "RAAN(deg)": 84.99762325504608,
        "Satellite Name": "Constellation 1 387",
        "Satellite Number": 387,
        "Semi-Major Axis(m)": 7083131.272910544,
        "Time(s)": 42
    },
    {
        "Altitude(m)": 709587.0411153397,
        "Argument of Periapsis(deg)": 0.0025777642685524413,
        "Eccentricity": 0.0,
        "Inclination(deg)": 45.0,
        "Latitude(deg)": -24.309745173902318,
        "Longitude(deg)": -168.4528736286344,
        "Mean Anomaly(deg)": 215.33744903074563,
        "RAAN(deg)": 84.99756666588051,
        "Satellite Name": "Constellation 1 387",
        "Satellite Number": 387,
        "Semi-Major Axis(m)": 7083131.272910544,
        "Time(s)": 43
    },
    {
        "Altitude(m)": 709600.7768988039,
        "Argument of Periapsis(deg)": 0.002637712274797847,
        "Eccentricity": 0.0,
        "Inclination(deg)": 45.0,
        "Latitude(deg)": -24.34822935773432,
        "Longitude(deg)": -168.40549260126812,
        "Mean Anomaly(deg)": 215.39815017099556,
        "RAAN(deg)": 84.99751007671495,
        "Satellite Name": "Constellation 1 387",
        "Satellite Number": 387,
        "Semi-Major Axis(m)": 7083131.272910544,
        "Time(s)": 44
    },
    {
        "Altitude(m)": 709614.5158832506,
        "Argument of Periapsis(deg)": 0.0026976602810432526,
        "Eccentricity": 0.0,
        "Inclination(deg)": 45.0,
        "Latitude(deg)": -24.386695773311526,
        "Longitude(deg)": -168.3580804171173,
        "Mean Anomaly(deg)": 215.45885131124547,
        "RAAN(deg)": 84.99745348754936,
        "Satellite Name": "Constellation 1 387",
        "Satellite Number": 387,
        "Semi-Major Axis(m)": 7083131.272910544,
        "Time(s)": 45
    },
    {
        "Altitude(m)": 709628.2580222125,
        "Argument of Periapsis(deg)": 0.0027576082872886585,
        "Eccentricity": 0.0,
        "Inclination(deg)": 45.0,
        "Latitude(deg)": -24.425144379002045,
        "Longitude(deg)": -168.3106371842491,
        "Mean Anomaly(deg)": 215.5195524514954,
        "RAAN(deg)": 84.99739689838381,
        "Satellite Name": "Constellation 1 387",
        "Satellite Number": 387,
        "Semi-Major Axis(m)": 7083131.272910544,
        "Time(s)": 46
    },
    {
        "Altitude(m)": 709642.0032691939,
        "Argument of Periapsis(deg)": 0.0028175562935340644,
        "Eccentricity": 0.0,
        "Inclination(deg)": 45.0,
        "Latitude(deg)": -24.46357513311399,
        "Longitude(deg)": -168.26316284262458,
        "Mean Anomaly(deg)": 215.58025359174528,
        "RAAN(deg)": 84.99734030921825,
        "Satellite Name": "Constellation 1 387",
        "Satellite Number": 387,
        "Semi-Major Axis(m)": 7083131.272910544,
        "Time(s)": 47
    },
    {
        "Altitude(m)": 709655.75157769,
        "Argument of Periapsis(deg)": 0.00287750429977947,
        "Eccentricity": 0.0,
        "Inclination(deg)": 45.0,
        "Latitude(deg)": -24.50198799389525,
        "Longitude(deg)": -168.2156573321952,
        "Mean Anomaly(deg)": 215.64095473199512,
        "RAAN(deg)": 84.99728372005266,
        "Satellite Name": "Constellation 1 387",
        "Satellite Number": 387,
        "Semi-Major Axis(m)": 7083131.272910544,
        "Time(s)": 48
    },
    {
        "Altitude(m)": 709669.5029011593,
        "Argument of Periapsis(deg)": 0.002937452306024875,
        "Eccentricity": 0.0,
        "Inclination(deg)": 45.0,
        "Latitude(deg)": -24.540382919533346,
        "Longitude(deg)": -168.16812059290356,
        "Mean Anomaly(deg)": 215.70165587224506,
        "RAAN(deg)": 84.9972271308871,
        "Satellite Name": "Constellation 1 387",
        "Satellite Number": 387,
        "Semi-Major Axis(m)": 7083131.272910544,
        "Time(s)": 49
    },
    {
        "Altitude(m)": 709683.2571930327,
        "Argument of Periapsis(deg)": 0.0029974003122702807,
        "Eccentricity": 0.0,
        "Inclination(deg)": 45.0,
        "Latitude(deg)": -24.57875986815519,
        "Longitude(deg)": -168.1205525646837,
        "Mean Anomaly(deg)": 215.76235701249496,
        "RAAN(deg)": 84.99717054172152,
        "Satellite Name": "Constellation 1 387",
        "Satellite Number": 387,
        "Semi-Major Axis(m)": 7083131.272910544,
        "Time(s)": 50
    },
    {
        "Altitude(m)": 709697.0144067274,
        "Argument of Periapsis(deg)": 0.0030573483185156866,
        "Eccentricity": 0.0,
        "Inclination(deg)": 45.0,
        "Latitude(deg)": -24.61711879782715,
        "Longitude(deg)": -168.07295318746102,
        "Mean Anomaly(deg)": 215.82305815274486,
        "RAAN(deg)": 84.99711395255596,
        "Satellite Name": "Constellation 1 387",
        "Satellite Number": 387,
        "Semi-Major Axis(m)": 7083131.272910544,
        "Time(s)": 51
    },
    {
        "Altitude(m)": 709710.7744956283,
        "Argument of Periapsis(deg)": 0.003117296324761092,
        "Eccentricity": 0.0,
        "Inclination(deg)": 45.0,
        "Latitude(deg)": -24.655459666554552,
        "Longitude(deg)": -168.02532256924994,
        "Mean Anomaly(deg)": 215.8837592929948,
        "RAAN(deg)": 84.9970573633904,
        "Satellite Name": "Constellation 1 387",
        "Satellite Number": 387,
        "Semi-Major Axis(m)": 7083131.272910544,
        "Time(s)": 52
    },
    {
        "Altitude(m)": 709724.5374130975,
        "Argument of Periapsis(deg)": 0.0031772443310064975,
        "Eccentricity": 0.0,
        "Inclination(deg)": 45.0,
        "Latitude(deg)": -24.693782432282717,
        "Longitude(deg)": -167.9776603137659,
        "Mean Anomaly(deg)": 215.94446043324464,
        "RAAN(deg)": 84.99700077422482,
        "Satellite Name": "Constellation 1 387",
        "Satellite Number": 387,
        "Semi-Major Axis(m)": 7083131.272910544,
        "Time(s)": 53
    },
    {
        "Altitude(m)": 709738.3031124887,
        "Argument of Periapsis(deg)": 0.0032371923372519038,
        "Eccentricity": 0.0,
        "Inclination(deg)": 45.0,
        "Latitude(deg)": -24.732087052895352,
        "Longitude(deg)": -167.92996652900752,
        "Mean Anomaly(deg)": 216.00516157349452,
        "RAAN(deg)": 84.99694418505925,
        "Satellite Name": "Constellation 1 387",
        "Satellite Number": 387,
        "Semi-Major Axis(m)": 7083131.272910544,
        "Time(s)": 54
    },
    {
        "Altitude(m)": 709752.0715471039,
        "Argument of Periapsis(deg)": 0.0032971403434973088,
        "Eccentricity": 0.0,
        "Inclination(deg)": 45.0,
        "Latitude(deg)": -24.77037348621524,
        "Longitude(deg)": -167.88224115486935,
        "Mean Anomaly(deg)": 216.06586271374442,
        "RAAN(deg)": 84.99688759589368,
        "Satellite Name": "Constellation 1 387",
        "Satellite Number": 387,
        "Semi-Major Axis(m)": 7083131.272910544,
        "Time(s)": 55
    },
    {
        "Altitude(m)": 709765.8426702493,
        "Argument of Periapsis(deg)": 0.0033570883497427146,
        "Eccentricity": 0.0,
        "Inclination(deg)": 45.0,
        "Latitude(deg)": -24.808641690004183,
        "Longitude(deg)": -167.83448413123858,
        "Mean Anomaly(deg)": 216.12656385399438,
        "RAAN(deg)": 84.99683100672812,
        "Satellite Name": "Constellation 1 387",
        "Satellite Number": 387,
        "Semi-Major Axis(m)": 7083131.272910544,
        "Time(s)": 56
    }
]